TELSTAR 11N             
1 34111U 09009A   09079.84468163 -.00000257  00000-0  10000-3 0   285
2 34111   0.0439 305.2943 0002470 349.0153 150.7200  1.00270627   271
SL-23 R/B               
1 34112U 09009B   09080.05076481  .00000037  00000-0  00000+0 0   111
2 34112  34.8471  80.9998 6900707   7.9555 358.9403  2.20463633   509
2009-010A               
1 34264U 09010A   09076.69385589 -.00000073  00000-0  10000-3 0   181
2 34264   1.4529 230.4258 0029995 141.3423  71.2436  0.99098613   174
2009-010B               
1 34265U 09010B   09076.99349469 -.00000013  00000-0  10000-3 0   197
2 34265   1.4775 230.8557 0008610  16.7169 358.4783  0.99992923   179
SL-12 DEB(AUX MOTOR)    
1 34268U 09010E   09079.54287514  .00000264  00000-0  14205-3 0   105
2 34268  47.5065 224.2915 7275591   5.2613 359.2428  2.26417053   429
SL-12 DEB(AUX MOTOR)    
1 34269U 09010F   09079.50778856  .00000959  00000-0  22294-3 0   126
2 34269  47.4541 224.2015 7294118   5.3798 359.2758  2.26826586   386
KEPLER                  
1 34380U 09011A   09067.01744983  .00000005  00000-0  00000-0 0    16
2 34380  28.5514  43.9608 2287689 108.4676 277.6729  7.34265484    68
DELTA 2 R/B(2)          
1 34381U 09011B   09066.60924430  .00000005  00000-0  00000-0 0    18
2 34381  28.5476  44.5104 2287097 107.5267 278.6464  7.34265542    32
DELTA 2 R/B(1)          
1 34382U 09011C   09079.94230718  .00000008  00000-0  00000-0 0   168
2 34382  28.5510  26.2751 2287664 137.2340 243.0629  7.34274028  1016
STS 119                 
1 34541U 09012A   09076.80103698  .00010408  00000-0  83928-4 0   152
2 34541  51.6403  55.1451 0009407 132.9154 304.1851 15.71522027   299
GOCE                    
1 34602U 09013A   09080.59833787  .00017202  20479-5  39701-4 0   191
2 34602  96.7050  89.2828 0013213 304.8464  55.1555 15.97647045   633
SL-19 R/B               
1 34603U 09013B   09080.88834136  .00133089  97833-5  15220-3 0   169
2 34603  96.6380  89.4623 0044407   8.7084 351.4962 16.06953445   674
